IRIDIUM 144             
1 43249U 18030A   25316.87841956 -.00000052  00000+0 -25474-4 0  9993
2 43249  86.3998  20.8262 0002031  99.5187 260.6238 14.34217094399139
IRIDIUM 149             
1 43250U 18030B   25317.09406736  .00000006  00000+0 -49693-5 0  9991
2 43250  86.3999  20.7059 0002006  97.0463 263.0961 14.34217543399181
IRIDIUM 157             
1 43251U 18030C   25317.18286338  .00000178  00000+0  56477-4 0  9992
2 43251  86.4003  20.7172 0002356  96.9548 263.1916 14.34218754399170
IRIDIUM 140             
1 43252U 18030D   25316.43443667 -.00000019  00000+0 -13837-4 0  9999
2 43252  86.4001  21.0429 0001775  95.1434 264.9965 14.34218462399121
IRIDIUM 145             
1 43253U 18030E   25316.63105265  .00000399  00000+0  13525-3 0  9993
2 43253  86.4003  20.9334 0001901 103.6545 256.4863 14.34220971399082
IRIDIUM 146             
1 43254U 18030F   25317.17017713 -.00000017  00000+0 -13135-4 0  9991
2 43254  86.4001  20.7210 0001929 102.1434 257.9978 14.34219363399179
IRIDIUM 148             
1 43255U 18030G   25317.13846288  .00000499  00000+0  17098-3 0  9998
2 43255  86.4003  20.7742 0002254  98.5036 261.6416 14.34220844399209
IRIDIUM 142             
1 43256U 18030H   25317.17651905  .00000262  00000+0  86668-4 0  9991
2 43256  86.3999  20.6551 0001932 107.5595 252.5812 14.34219083399171
